[{"OBJECT_NAME":"STARLINK-34678","OBJECT_ID":"2025-194K","EPOCH":"2026-03-09T14:39:44.468640","MEAN_MOTION":15.05709231,"ECCENTRICITY":0.0002122,"INCLINATION":97.6022,"RA_OF_ASC_NODE":284.282,"ARG_OF_PERICENTER":90.3505,"MEAN_ANOMALY":269.7965,"EPHEMERIS_TYPE":0,"CLASSIFICATION_TYPE":"U","NORAD_CAT_ID":65443,"ELEMENT_SET_NO":999,"REV_AT_EPOCH":2963,"BSTAR":0.0020213,"MEAN_MOTION_DOT":0.00029272,"MEAN_MOTION_DDOT":0},{"OBJECT_NAME":"PSLV DEB","OBJECT_ID":"2001-049NA","EPOCH":"2026-03-08T15:04:56.759808","MEAN_MOTION":15.08740413,"ECCENTRICITY":0.00254054,"INCLINATION":98.314,"RA_OF_ASC_NODE":131.3874,"ARG_OF_PERICENTER":357.4644,"MEAN_ANOMALY":2.6449,"EPHEMERIS_TYPE":0,"CLASSIFICATION_TYPE":"U","NORAD_CAT_ID":27582,"ELEMENT_SET_NO":999,"REV_AT_EPOCH":27774,"BSTAR":0.00086862236,"MEAN_MOTION_DOT":0.0001368,"MEAN_MOTION_DDOT":0}]
